1 21655U 91056A   04050.39861573  .00000051  00000-0  10000-3 0  5953
2 21655  82.5587 140.4490 0013536   9.2635 350.8732 13.16990947601634
1 21655U 91056A   04050.93041062  .00000051  00000-0  10000-3 0  6126
2 21655  82.5587 140.0735 0013533   7.6350 352.4975 13.16990806601704
1 21655U 91056A   04051.91802980  .00000051  00000-0  10000-3 0  6624
2 21655  82.5587 139.3759 0013375   5.1612 354.9646 13.16990346601834
1 21655U 91056A   04052.90564782  .00000051  00000-0  10000-3 0  7170
2 21655  82.5587 138.6788 0013345   2.9007 357.2196 13.16990566601962
1 21655U 91056A   04053.96923525  .00000051  00000-0  10000-3 0  7733
2 21655  82.5584 137.9273 0013289   0.0196   0.0928 13.16990876602102
1 21655U 91056A   04054.50102814  .00000051  00000-0  10000-3 0  5967
2 21655  82.5583 137.5524 0013288 358.3244   1.7832 13.16991226602177
1 21655U 91056A   04054.95685067  .00000051  00000-0  10000-3 0  6187
2 21655  82.5585 137.2310 0013226 357.6998   2.4062 13.16991534602231
1 21655U 91056A   04055.94446411  .00000051  00000-0  10000-3 0  6602
2 21655  82.5586 136.5324 0013165 354.8452   5.2538 13.16993070602365
1 21655U 91056A   04056.93207965  .00000051  00000-0  10000-3 0  7129
2 21655  82.5583 135.8350 0013098 352.4953   7.5971 13.16993312602497
1 21655U 91056A   04057.23596162  .00000051  00000-0  10000-3 0  5974
2 21655  82.5583 135.6204 0013092 351.7322   8.3582 13.16993327602537
1 21655U 91056A   04057.91969654  .00000051  00000-0  10000-3 0  6262
2 21655  82.5580 135.1374 0013087 349.9895  10.0963 13.16993254602627
1 21655U 91056A   04058.90731470  .00000051  00000-0  10000-3 0  6793
2 21655  82.5575 134.4392 0013234 347.5655  12.5131 13.16993025602759
1 21655U 91056A   04059.89493340  .00000051  00000-0  10000-3 0  7356
2 21655  82.5568 133.7407 0013287 344.8904  15.1811 13.16992737602882
1 21655U 91056A   04060.19881798  .00000051  00000-0  10000-3 0  5986
2 21655  82.5566 133.5271 0013117 344.9828  15.0902 13.16991370602922
1 21655U 91056A   04060.95852519  .00000051  00000-0  10000-3 0  6407
2 21655  82.5566 132.9903 0013148 342.9578  17.1101 13.16991093603029
1 21655U 91056A   04061.94614490  .00000051  00000-0  10000-3 0  6850
2 21655  82.5563 132.2924 0013063 340.4196  19.6422 13.16990303603157
1 21655U 91056A   04062.93376191  .00000051  00000-0  10000-3 0  7326
2 21655  82.5564 131.5949 0012964 337.7438  22.3130 13.16990782603286
1 21655U 91056A   04063.92137784  .00000051  00000-0  10000-3 0  7813
2 21655  82.5569 130.8982 0012947 335.1887  24.8611 13.16991327603413
1 21655U 91056A   04064.22525943  .00000051  00000-0  10000-3 0  5992
2 21655  82.5570 130.6838 0012992 334.1240  25.9232 13.16991503603456
1 21655U 91056A   04064.90899373  .00000051  00000-0  10000-3 0  6258
2 21655  82.5574 130.2017 0012877 332.6168  27.4286 13.16991818603544
1 21655U 91056A   04065.89660900  .00000051  00000-0  10000-3 0  6721
2 21655  82.5577 129.5050 0012827 330.0666  29.9729 13.16992267603677
1 21655U 91056A   04066.96019540  .00000051  00000-0  10000-3 0  7268
2 21655  82.5575 128.7539 0012739 327.3018  32.7316 13.16992529603811
1 21655U 91056A   04067.94781231  .00000051  00000-0  10000-3 0  7866
2 21655  82.5571 128.0559 0012689 324.7574  35.2707 13.16992614603945
1 21655U 91056A   04068.55557738  .00000051  00000-0  10000-3 0  6002
2 21655  82.5567 127.6261 0012631 323.1130  36.9122 13.16992547604027
1 21655U 91056A   04068.93543048  .00000051  00000-0  10000-3 0  6159
2 21655  82.5565 127.3575 0012638 322.2510  37.7721 13.16992525604074
1 21655U 91056A   04069.92304896  .00000051  00000-0  10000-3 0  6616
2 21655  82.5558 126.6590 0012720 319.7048  40.3130 13.16992439604207
1 21655U 91056A   04070.91066772  .00000051  00000-0  10000-3 0  7098
2 21655  82.5552 125.9607 0012687 317.1641  42.8491 13.16992314604338
1 21655U 91056A   04071.89828613  .00000051  00000-0  10000-3 0  7557
2 21655  82.5548 125.2625 0012647 314.7847  45.2245 13.16992268604469
1 21655U 91056A   04072.88590385  .00000051  00000-0  10000-3 0  6019
2 21655  82.5547 124.5648 0012611 312.3378  47.6677 13.16992321604598
1 21655U 91056A   04073.87352065  .00000051  00000-0  10000-3 0  6548
2 21655  82.5550 123.8673 0012441 309.6562  50.3468 13.16992469604724
1 21655U 91056A   04074.86113684  .00000051  00000-0  10000-3 0  7091
2 21655  82.5556 123.1700 0012362 307.0602  52.9390 13.16992673604856
1 21655U 91056A   04075.92472369  .00000051  00000-0  10000-3 0  7604
2 21655  82.5560 122.4191 0012365 304.2250  55.7704 13.16992879604991
1 21655U 91056A   04076.91234005  .00000051  00000-0  10000-3 0  8080
2 21655  82.5562 121.7217 0012359 301.5934  58.3983 13.16993043605124
1 21655U 91056A   04077.21622227  .00000051  00000-0  10000-3 0  6023
2 21655  82.5560 121.5069 0012346 300.6917  59.2988 13.16993046605164
1 21655U 91056A   04077.89995733  .00000051  00000-0  10000-3 0  6291
2 21655  82.5559 121.0237 0012330 298.8835  61.1049 13.16993083605255
1 21655U 91056A   04078.96354637  .00000051  00000-0  10000-3 0  6810
2 21655  82.5550 120.2719 0012322 296.3300  63.6556 13.16993003605390
1 21655U 91056A   04079.95116555  .00000051  00000-0  10000-3 0  7401
2 21655  82.5539 119.5734 0012402 294.1150  65.8674 13.16992857605529
1 21655U 91056A   04080.93878453  .00000051  00000-0  10000-3 0  7942
2 21655  82.5530 118.8751 0012441 291.6401  68.3395 13.16992736605653
1 21655U 91056A   04081.54654996  .00000051  00000-0  10000-3 0  6033
2 21655  82.5526 118.4454 0012378 290.0469  69.9320 13.16992681605733
1 21655U 91056A   04081.92640308  .00000051  00000-0  10000-3 0  6172
2 21655  82.5524 118.1768 0012392 289.2149  70.7632 13.16992692605780
1 21655U 91056A   04082.91402384  .00000051  00000-0  10000-3 0  6622
2 21655  82.5525 117.4795 0012162 285.1152  74.8630 13.16991206605915
1 21655U 91056A   04083.90163922  .00000051  00000-0  10000-3 0  7085
2 21655  82.5523 116.7819 0012190 283.0456  76.9311 13.16992072606043
1 21655U 91056A   04084.96522585  .00000051  00000-0  10000-3 0  7581
2 21655  82.5522 116.0306 0012141 280.0852  79.8901 13.16992551606183
1 21655U 91056A   04085.87687103  .00000051  00000-0  10000-3 0  6040
2 21655  82.5524 115.3867 0012116 277.4708  82.5042 13.16992984606302
1 21655U 91056A   04085.95284153  .00000051  00000-0  10000-3 0  6058
2 21655  82.5524 115.3330 0012119 277.2771  82.6974 13.16992993606314
1 21655U 91056A   04086.94045837  .00000051  00000-0  10000-3 0  6603
2 21655  82.5524 114.6350 0012105 274.4713  85.5026 13.16993178606448
1 21655U 91056A   04087.92807623  .00000051  00000-0  10000-3 0  7130
2 21655  82.5522 113.9367 0012091 271.7665  88.2073 13.16993205606573
1 21655U 91056A   04088.91569517  .00000051  00000-0  10000-3 0  7564
2 21655  82.5517 113.2380 0012105 269.4487  90.5248 13.16993106606702
1 21655U 91056A   04089.90331483  .00000051  00000-0  10000-3 0  6056
2 21655  82.5512 112.5391 0012126 267.1730  92.8004 13.16992947606831
1 21655U 91056A   04089.97928548  .00000051  00000-0  10000-3 0  6079
2 21655  82.5512 112.4854 0012122 266.9754  92.9981 13.16992949606841
1 21655U 91056A   04090.96690493  .00000051  00000-0  10000-3 0  6558
2 21655  82.5508 111.7868 0012102 264.2975  95.6767 13.16992832606974
1 21655U 91056A   04091.95452637  .00000051  00000-0  10000-3 0  7094
2 21655  82.5519 111.0889 0012000 259.7818 100.1955 13.16991248607101
1 21655U 91056A   04092.94214395  .00000051  00000-0  10000-3 0  7653
2 21655  82.5522 110.3913 0011965 257.0516 102.9271 13.16991704607232
1 21655U 91056A   04093.92976103  .00000051  00000-0  10000-3 0  8194
2 21655  82.5524 109.6939 0011949 254.5471 105.4333 13.16992169607364
1 21655U 91056A   04094.23364245  .00000051  00000-0  10000-3 0  6061
2 21655  82.5524 109.4795 0012066 254.1652 105.8142 13.16992404607409
1 21655U 91056A   04094.91737767  .00000051  00000-0  10000-3 0  6306
2 21655  82.5523 108.9965 0012026 252.2841 107.6979 13.16992622607495
1 21655U 91056A   04095.98096429  .00000051  00000-0  10000-3 0  6925
2 21655  82.5526 108.2456 0012041 248.9827 111.0008 13.16993032607633
1 21655U 91056A   04096.96858119  .00000051  00000-0  10000-3 0  7590
2 21655  82.5523 107.5473 0012080 246.2540 113.7316 13.16993279607765
1 21655U 91056A   04097.50037332  .00000051  00000-0  10000-3 0  6079
2 21655  82.5515 107.1684 0012059 245.2044 114.7820 13.16994636607837
1 21655U 91056A   04097.95619738  .00000051  00000-0  10000-3 0  6265
2 21655  82.5512 106.8461 0012031 244.0624 115.9257 13.16994490607895
1 21655U 91056A   04098.94381735  .00000051  00000-0  10000-3 0  6763
2 21655  82.5507 106.1476 0012029 241.9648 118.0258 13.16993962608021
1 21655U 91056A   04099.93143778  .00000051  00000-0  10000-3 0  7251
2 21655  82.5499 105.4499 0012233 237.7459 122.2419 13.16992168608155
1 21655U 91056A   04100.23532248  .00000051  00000-0  10000-3 0  6081
2 21655  82.5500 105.2351 0012219 236.6553 123.3400 13.16992010608192
1 21655U 91056A   04100.91905911  .00000051  00000-0  10000-3 0  6324
2 21655  82.5501 104.7519 0012221 235.1973 124.7999 13.16992003608286
1 21655U 91056A   04101.90667921  .00000051  00000-0  10000-3 0  6881
2 21655  82.5502 104.0537 0012215 232.2342 127.7677 13.16991662608412
1 21655U 91056A   04102.97026756  .00000051  00000-0  10000-3 0  7458
2 21655  82.5504 103.3020 0012208 229.6732 130.3327 13.16992193608555
1 21655U 91056A   04103.95788437  .00000051  00000-0  10000-3 0  8022
2 21655  82.5508 102.6047 0012263 226.8610 133.1488 13.16992713608686
1 21655U 91056A   04104.48967761  .00000051  00000-0  10000-3 0  6095
2 21655  82.5509 102.2292 0012259 225.1424 134.8704 13.16993043608759
1 21655U 91056A   04104.94550084  .00000051  00000-0  10000-3 0  6272
2 21655  82.5512 101.9073 0012322 224.0334 135.9817 13.16993227608813
1 21655U 91056A   04105.93311802  .00000051  00000-0  10000-3 0  6691
2 21655  82.5514 101.2096 0012367 221.1510 138.8681 13.16993474608945
